start=new Date('2022-07-14T00:00:00.000Z').valueOf();
sats=[{"LAUNCH_DATE":"2022-04-21","ELEMENT_SET_NO":"999","OBJECT_NAME":"STARLINK-3804","SITE":"AFETR","TIME_SYSTEM":"UTC","ARG_OF_PERICENTER":"44.1436","CLASSIFICATION_TYPE":"U","TLE_LINE1":"1 52270U 22041K   22194.91667824  .00032671  00000-0  20637-2 0  9995","PERIOD":"95.440","DECAY_DATE":null,"GP_ID":"208069452","APOAPSIS":"541.027","REF_FRAME":"TEME","OBJECT_TYPE":"PAYLOAD","EPOCH":"2022-07-13T22:00:00.999936","SEMIMAJOR_AXIS":"6918.008","BSTAR":"0.00206370000000","REV_AT_EPOCH":"130","OBJECT_ID":"2022-041K","EPHEMERIS_TYPE":"0","MEAN_ELEMENT_THEORY":"SGP4","TLE_LINE2":"2 52270  53.2158 341.1348 0001668  44.1436 156.7514 15.08798359  1307","FILE":"3513188","NORAD_CAT_ID":"52270","MEAN_MOTION_DOT":"0.00032671","PERIAPSIS":"538.719","ECCENTRICITY":"0.00016680","COUNTRY_CODE":"US","MEAN_ANOMALY":"156.7514","CENTER_NAME":"EARTH","RCS_SIZE":"LARGE","INCLINATION":"53.2158","MEAN_MOTION_DDOT":"0.0000000000000","MEAN_MOTION":"15.08798359","RA_OF_ASC_NODE":"341.1348"},{"MEAN_ANOMALY":"116.9645","PERIAPSIS":"538.685","ECCENTRICITY":"0.00016250","COUNTRY_CODE":"US","OBJECT_ID":"2022-041L","REV_AT_EPOCH":"130","EPHEMERIS_TYPE":"0","TLE_LINE2":"2 52271  53.2147 341.1446 0001625  49.1129 116.9645 15.08819006  1308","MEAN_ELEMENT_THEORY":"SGP4","MEAN_MOTION_DOT":"-0.00009518","FILE":"3513188","NORAD_CAT_ID":"52271","OBJECT_TYPE":"PAYLOAD","SEMIMAJOR_AXIS":"6917.945","EPOCH":"2022-07-13T22:00:00.999936","BSTAR":"-0.00058104000000","RA_OF_ASC_NODE":"341.1446","INCLINATION":"53.2147","MEAN_MOTION_DDOT":"0.0000000000000","MEAN_MOTION":"15.08819006","CENTER_NAME":"EARTH","RCS_SIZE":"LARGE","GP_ID":"208069189","CLASSIFICATION_TYPE":"U","TLE_LINE1":"1 52271U 22041L   22194.91667824 -.00009518  00000-0 -58104-3 0  9993","DECAY_DATE":null,"PERIOD":"95.439","SITE":"AFETR","TIME_SYSTEM":"UTC","ARG_OF_PERICENTER":"49.1129","ELEMENT_SET_NO":"999","LAUNCH_DATE":"2022-04-21","OBJECT_NAME":"STARLINK-3788","REF_FRAME":"TEME","APOAPSIS":"540.934"},{"REF_FRAME":"TEME","APOAPSIS":"540.960","GP_ID":"208068986","TLE_LINE1":"1 52272U 22041M   22194.91667824 -.00009021  00000-0 -54968-3 0  9997","DECAY_DATE":null,"PERIOD":"95.439","CLASSIFICATION_TYPE":"U","TIME_SYSTEM":"UTC","ARG_OF_PERICENTER":"52.8768","SITE":"AFETR","LAUNCH_DATE":"2022-04-21","ELEMENT_SET_NO":"999","OBJECT_NAME":"STARLINK-3781","RA_OF_ASC_NODE":"341.1347","MEAN_MOTION_DDOT":"0.0000000000000","MEAN_MOTION":"15.08821648","INCLINATION":"53.2166","RCS_SIZE":"LARGE","CENTER_NAME":"EARTH","MEAN_ANOMALY":"167.9778","PERIAPSIS":"538.643","ECCENTRICITY":"0.00016740","COUNTRY_CODE":"US","MEAN_MOTION_DOT":"-0.00009021","FILE":"3513188","NORAD_CAT_ID":"52272","OBJECT_ID":"2022-041M","REV_AT_EPOCH":"130","EPHEMERIS_TYPE":"0","TLE_LINE2":"2 52272  53.2166 341.1347 0001674  52.8768 167.9778 15.08821648  1302","MEAN_ELEMENT_THEORY":"SGP4","SEMIMAJOR_AXIS":"6917.936","EPOCH":"2022-07-13T22:00:00.999936","BSTAR":"-0.00054968000000","OBJECT_TYPE":"PAYLOAD"},{"GP_ID":"208069293","DECAY_DATE":null,"TLE_LINE1":"1 52273U 22041N   22194.91667824 -.00721191  00000-0 -41122-1 0  9993","PERIOD":"95.057","CLASSIFICATION_TYPE":"U","TIME_SYSTEM":"UTC","ARG_OF_PERICENTER":"86.9752","SITE":"AFETR","OBJECT_NAME":"STARLINK-3782","LAUNCH_DATE":"2022-04-21","ELEMENT_SET_NO":"999","REF_FRAME":"TEME","APOAPSIS":"522.255","MEAN_ANOMALY":"65.7380","ECCENTRICITY":"0.00013320","COUNTRY_CODE":"US","PERIAPSIS":"520.417","FILE":"3513188","MEAN_MOTION_DOT":"-0.00721191","NORAD_CAT_ID":"52273","TLE_LINE2":"2 52273  53.2172 331.2266 0001332  86.9752  65.7380 15.14882814  1305","MEAN_ELEMENT_THEORY":"SGP4","REV_AT_EPOCH":"130","EPHEMERIS_TYPE":"0","OBJECT_ID":"2022-041N","BSTAR":"-0.04112200000000","EPOCH":"2022-07-13T22:00:00.999936","SEMIMAJOR_AXIS":"6899.471","OBJECT_TYPE":"PAYLOAD","RA_OF_ASC_NODE":"331.2266","MEAN_MOTION":"15.14882814","MEAN_MOTION_DDOT":"0.0000000000000","INCLINATION":"53.2172","RCS_SIZE":"LARGE","CENTER_NAME":"EARTH"},{"FILE":"3513188","NORAD_CAT_ID":"52274","MEAN_MOTION_DOT":"-0.00011487","TLE_LINE2":"2 52274  53.2161 341.1343 0001754  50.3878 195.6782 15.08821731  1305","MEAN_ELEMENT_THEORY":"SGP4","REV_AT_EPOCH":"130","EPHEMERIS_TYPE":"0","OBJECT_ID":"2022-041P","BSTAR":"-0.00070513000000","EPOCH":"2022-07-13T22:00:00.999936","SEMIMAJOR_AXIS":"6917.936","OBJECT_TYPE":"PAYLOAD","MEAN_ANOMALY":"195.6782","COUNTRY_CODE":"US","ECCENTRICITY":"0.00017540","PERIAPSIS":"538.588","RCS_SIZE":"LARGE","CENTER_NAME":"EARTH","RA_OF_ASC_NODE":"341.1343","MEAN_MOTION":"15.08821731","MEAN_MOTION_DDOT":"0.0000000000000","INCLINATION":"53.2161","ARG_OF_PERICENTER":"50.3878","TIME_SYSTEM":"UTC","SITE":"AFETR","OBJECT_NAME":"STARLINK-3790","LAUNCH_DATE":"2022-04-21","ELEMENT_SET_NO":"999","GP_ID":"208069091","PERIOD":"95.439","TLE_LINE1":"1 52274U 22041P   22194.91667824 -.00011487  00000-0 -70513-3 0  9992","DECAY_DATE":null,"CLASSIFICATION_TYPE":"U","APOAPSIS":"541.015","REF_FRAME":"TEME"},{"REF_FRAME":"TEME","APOAPSIS":"541.010","CLASSIFICATION_TYPE":"U","TLE_LINE1":"1 52275U 22041Q   22194.91667824  .00022472  00000-0  14267-2 0  9990","PERIOD":"95.440","DECAY_DATE":null,"GP_ID":"208069550","OBJECT_NAME":"STARLINK-3784","LAUNCH_DATE":"2022-04-21","ELEMENT_SET_NO":"999","SITE":"AFETR","TIME_SYSTEM":"UTC","ARG_OF_PERICENTER":"51.1948","INCLINATION":"53.2159","MEAN_MOTION":"15.08809066","MEAN_MOTION_DDOT":"0.0000000000000","RA_OF_ASC_NODE":"341.1344","CENTER_NAME":"EARTH","RCS_SIZE":"LARGE","COUNTRY_CODE":"US","ECCENTRICITY":"0.00016920","PERIAPSIS":"538.669","MEAN_ANOMALY":"154.8484","OBJECT_TYPE":"PAYLOAD","BSTAR":"0.00142670000000","EPOCH":"2022-07-13T22:00:00.999936","SEMIMAJOR_AXIS":"6917.975","MEAN_ELEMENT_THEORY":"SGP4","TLE_LINE2":"2 52275  53.2159 341.1344 0001692  51.1948 154.8484 15.08809066  1305","REV_AT_EPOCH":"130","EPHEMERIS_TYPE":"0","OBJECT_ID":"2022-041Q","NORAD_CAT_ID":"52275","FILE":"3513188","MEAN_MOTION_DOT":"0.00022472"},{"FILE":"3513188","NORAD_CAT_ID":"52276","MEAN_MOTION_DOT":"-0.00016927","TLE_LINE2":"2 52276  53.2186 341.1387 0001620  45.8378 220.2179 15.08823409  1307","MEAN_ELEMENT_THEORY":"SGP4","REV_AT_EPOCH":"130","OBJECT_ID":"2022-041R","EPHEMERIS_TYPE":"0","BSTAR":"-0.00104840000000","SEMIMAJOR_AXIS":"6917.931","EPOCH":"2022-07-13T22:00:00.999936","OBJECT_TYPE":"PAYLOAD","MEAN_ANOMALY":"220.2179","COUNTRY_CODE":"US","ECCENTRICITY":"0.00016200","PERIAPSIS":"538.675","CENTER_NAME":"EARTH","RCS_SIZE":"LARGE","RA_OF_ASC_NODE":"341.1387","MEAN_MOTION":"15.08823409","MEAN_MOTION_DDOT":"0.0000000000000","INCLINATION":"53.2186","ARG_OF_PERICENTER":"45.8378","TIME_SYSTEM":"UTC","SITE":"AFETR","OBJECT_NAME":"STARLINK-3778","LAUNCH_DATE":"2022-04-21","ELEMENT_SET_NO":"999","GP_ID":"208069348","TLE_LINE1":"1 52276U 22041R   22194.91667824 -.00016927  00000-0 -10484-2 0  9998","PERIOD":"95.439","DECAY_DATE":null,"CLASSIFICATION_TYPE":"U","APOAPSIS":"540.917","REF_FRAME":"TEME"},{"RA_OF_ASC_NODE":"341.1356","INCLINATION":"53.2162","MEAN_MOTION":"15.08817459","MEAN_MOTION_DDOT":"0.0000000000000","RCS_SIZE":"LARGE","CENTER_NAME":"EARTH","MEAN_ANOMALY":"174.7772","COUNTRY_CODE":"US","ECCENTRICITY":"0.00017130","PERIAPSIS":"538.629","TLE_LINE2":"2 52277  53.2162 341.1356 0001713  51.2856 174.7772 15.08817459  1303","MEAN_ELEMENT_THEORY":"SGP4","REV_AT_EPOCH":"130","EPHEMERIS_TYPE":"0","OBJECT_ID":"2022-041S","FILE":"3513188","MEAN_MOTION_DOT":"-0.00006862","NORAD_CAT_ID":"52277","OBJECT_TYPE":"PAYLOAD","BSTAR":"-0.00041367000000","SEMIMAJOR_AXIS":"6917.949","EPOCH":"2022-07-13T22:00:00.999936","REF_FRAME":"TEME","APOAPSIS":"540.999","GP_ID":"208069655","CLASSIFICATION_TYPE":"U","PERIOD":"95.439","TLE_LINE1":"1 52277U 22041S   22194.91667824 -.00006862  00000-0 -41367-3 0  9991","DECAY_DATE":null,"SITE":"AFETR","ARG_OF_PERICENTER":"51.2856","TIME_SYSTEM":"UTC","OBJECT_NAME":"STARLINK-3787","ELEMENT_SET_NO":"999","LAUNCH_DATE":"2022-04-21"},{"CLASSIFICATION_TYPE":"U","TLE_LINE1":"1 52278U 22041T   22194.91667824 -.00008322  00000-0 -50560-3 0  9990","DECAY_DATE":null,"PERIOD":"95.439","GP_ID":"208069453","ELEMENT_SET_NO":"999","LAUNCH_DATE":"2022-04-21","OBJECT_NAME":"STARLINK-3780","SITE":"AFETR","TIME_SYSTEM":"UTC","ARG_OF_PERICENTER":"51.6677","REF_FRAME":"TEME","APOAPSIS":"540.968","PERIAPSIS":"538.635","COUNTRY_CODE":"US","ECCENTRICITY":"0.00016860","MEAN_ANOMALY":"234.3919","OBJECT_TYPE":"PAYLOAD","SEMIMAJOR_AXIS":"6917.937","EPOCH":"2022-07-13T22:00:00.999936","BSTAR":"-0.00050560000000","EPHEMERIS_TYPE":"0","REV_AT_EPOCH":"130","OBJECT_ID":"2022-041T","MEAN_ELEMENT_THEORY":"SGP4","TLE_LINE2":"2 52278  53.2178 341.1355 0001686  51.6677 234.3919 15.08821594  1305","NORAD_CAT_ID":"52278","FILE":"3513188","MEAN_MOTION_DOT":"-0.00008322","INCLINATION":"53.2178","MEAN_MOTION_DDOT":"0.0000000000000","MEAN_MOTION":"15.08821594","RA_OF_ASC_NODE":"341.1355","CENTER_NAME":"EARTH","RCS_SIZE":"LARGE"},{"SITE":"AFETR","ARG_OF_PERICENTER":"53.1890","TIME_SYSTEM":"UTC","ELEMENT_SET_NO":"999","LAUNCH_DATE":"2022-04-21","OBJECT_NAME":"STARLINK-3686","GP_ID":"208069190","CLASSIFICATION_TYPE":"U","DECAY_DATE":null,"TLE_LINE1":"1 52279U 22041U   22194.91667824  .00034326  00000-0  21657-2 0  9996","PERIOD":"95.439","APOAPSIS":"540.714","REF_FRAME":"TEME","REV_AT_EPOCH":"130","EPHEMERIS_TYPE":"0","OBJECT_ID":"2022-041U","TLE_LINE2":"2 52279  53.2156 341.1341 0001301  53.1890 187.6017 15.08817541  1301","MEAN_ELEMENT_THEORY":"SGP4","MEAN_MOTION_DOT":"0.00034326","FILE":"3513188","NORAD_CAT_ID":"52279","OBJECT_TYPE":"PAYLOAD","EPOCH":"2022-07-13T22:00:00.999936","SEMIMAJOR_AXIS":"6917.949","BSTAR":"0.00216570000000","MEAN_ANOMALY":"187.6017","PERIAPSIS":"538.914","COUNTRY_CODE":"US","ECCENTRICITY":"0.00013010","RCS_SIZE":"LARGE","CENTER_NAME":"EARTH","RA_OF_ASC_NODE":"341.1341","INCLINATION":"53.2156","MEAN_MOTION_DDOT":"0.0000000000000","MEAN_MOTION":"15.08817541"}];
